H1 CPF  1  DLR 2021 04 11 10  6012 technosat            
H2  1704205 6203    42829 2021 04 11 00 00 00 2021 04 18 00 00 00    60 1 1  0 0 0
H9
10 0 59315  21600.000000  0      -4145205.040      -4669112.705       3117209.134
10 0 59315  21660.000000  0      -4340074.536      -4746996.435       2710088.167
10 0 59315  21720.000000  0      -4517298.394      -4803309.454       2291498.925
10 0 59315  21780.000000  0      -4675945.604      -4837976.397       1863213.984
10 0 59315  21840.000000  0      -4815163.607      -4851021.165       1427046.643
10 0 59315  21900.000000  0      -4934182.790      -4842566.127        984843.138
10 0 59315  21960.000000  0      -5032320.603      -4812830.855        538474.688
10 0 59315  22020.000000  0      -5108985.287      -4762130.372         89829.426
10 0 59315  22080.000000  0      -5163679.168      -4690872.967       -359195.747
10 0 59315  22140.000000  0      -5196001.514      -4599557.565       -806703.373
10 0 59315  22200.000000  0      -5205650.899      -4488770.641      -1250803.635
10 0 59315  22260.000000  0      -5192427.090      -4359182.714      -1689622.499
10 0 59315  22320.000000  0      -5156232.422      -4211544.438      -2121309.740
10 0 59315  22380.000000  0      -5097072.675      -4046682.350      -2544046.771
10 0 59315  22440.000000  0      -5015057.481      -3865494.331      -2956054.320
10 0 59315  22500.000000  0      -4910400.244      -3668944.739      -3355599.883
10 0 59315  22560.000000  0      -4783417.595      -3458059.316      -3741004.918
10 0 59315  22620.000000  0      -4634528.371      -3233919.855      -4110651.819
10 0 59315  22680.000000  0      -4464252.104      -2997658.630      -4462990.554
10 0 59315  22740.000000  0      -4273207.059      -2750452.669      -4796544.974
10 0 59315  22800.000000  0      -4062107.823      -2493517.906      -5109918.765
10 0 59315  22860.000000  0      -3831762.485      -2228103.219      -5401801.030
10 0 59315  22920.000000  0      -3583069.416      -1955484.396      -5670971.501
10 0 59315  22980.000000  0      -3317013.657      -1676958.037      -5916305.341
10 0 59315  23040.000000  0      -3034662.947      -1393835.450      -6136777.553
10 0 59315  23100.000000  0      -2737163.371      -1107436.557      -6331466.973
10 0 59315  23160.000000  0      -2425734.669       -819083.835      -6499559.833
10 0 59315  23220.000000  0      -2101665.220       -530096.342      -6640352.862
10 0 59315  23280.000000  0      -1766306.751       -241783.815      -6753255.933
10 0 59315  23340.000000  0      -1421068.850         44559.076      -6837794.269
10 0 59315  23400.000000  0      -1067413.240        327658.336      -6893610.326
10 0 59315  23460.000000  0       -706847.758        606266.180      -6920465.292
10 0 59315  23520.000000  0       -340920.091        879166.440      -6918240.051
10 0 59315  23580.000000  0         28788.621       1145179.712      -6886935.684
10 0 59315  23640.000000  0        400670.326       1403168.262      -6826673.683
10 0 59315  23700.000000  0        773096.896       1652040.863      -6737695.829
10 0 59315  23760.000000  0       1144427.208       1890757.437      -6620363.387
10 0 59315  23820.000000  0       1513014.166       2118333.348      -6475155.802
10 0 59315  23880.000000  0       1877211.841       2333843.480      -6302669.150
10 0 59315  23940.000000  0       2235382.823       2536426.111      -6103614.045
10 0 59315  24000.000000  0       2585905.519       2725286.401      -5878812.963
10 0 59315  24060.000000  0       2927181.393       2899699.571      -5629197.233
10 0 59315  24120.000000  0       3257642.261       3059013.823      -5355803.655
10 0 59315  24180.000000  0       3575757.633       3202652.989      -5059770.641
10 0 59315  24240.000000  0       3880041.969       3330118.794      -4742333.790
10 0 59315  24300.000000  0       4169061.771       3440992.739      -4404821.079
10 0 59315  24360.000000  0       4441442.624       3534937.653      -4048647.611
10 0 59315  24420.000000  0       4695875.994       3611698.795      -3675309.854
10 0 59315  24480.000000  0       4931125.745       3671104.576      -3286379.524
10 0 59315  24540.000000  0       5146034.403       3713066.937      -2883497.112
10 0 59315  24600.000000  0       5339529.158       3737581.308      -2468365.042
10 0 59315  24660.000000  0       5510627.556       3744726.136      -2042740.433
10 0 59315  24720.000000  0       5658442.745       3734661.953      -1608427.549
10 0 59315  24780.000000  0       5782188.295       3707630.050      -1167270.006
10 0 59315  24840.000000  0       5881182.549       3663950.733       -721142.769
10 0 59315  24900.000000  0       5954852.550       3604021.200       -271943.954
10 0 59315  24960.000000  0       6002737.416       3528312.981        178413.562
10 0 59315  25020.000000  0       6024491.188       3437369.023        628010.599
10 0 59315  25080.000000  0       6019885.084       3331800.374       1074930.245
10 0 59315  25140.000000  0       5988809.113       3212282.531       1517266.368
10 0 59315  25200.000000  0       5931273.140       3079551.507       1953132.075
10 0 59315  25260.000000  0       5847407.395       2934399.612       2380668.125
10 0 59315  25320.000000  0       5737462.334       2777670.925       2798051.249
10 0 59315  25380.000000  0       5601807.867       2610256.501       3203502.241
10 0 59315  25440.000000  0       5440931.972       2433089.378       3595293.803
10 0 59315  25500.000000  0       5255438.722       2247139.440       3971758.120
10 0 59315  25560.000000  0       5046045.671       2053408.126       4331294.124
10 0 59315  25620.000000  0       4813580.803       1852923.016       4672374.207
10 0 59315  25680.000000  0       4558979.161       1646732.378       4993550.790
10 0 59315  25740.000000  0       4283278.726       1435899.695       5293462.629
10 0 59315  25800.000000  0       3987615.751       1221498.138       5570840.561
10 0 59315  25860.000000  0       3673219.657       1004605.038       5824512.743
10 0 59315  25920.000000  0       3341407.545        786296.435       6053409.346
10 0 59315  25980.000000  0       2993578.404        567641.751       6256566.780
10 0 59315  26040.000000  0       2631207.030        349698.625       6433131.536
10 0 59315  26100.000000  0       2255837.572        133507.805       6582363.596
10 0 59315  26160.000000  0       1869076.792        -79911.807       6703639.324
10 0 59315  26220.000000  0       1472587.036       -289567.925       6796453.933
10 0 59315  26280.000000  0       1068078.882       -494499.509       6860423.420
10 0 59315  26340.000000  0        657303.625       -693781.155       6895285.847
10 0 59315  26400.000000  0        242045.687       -886527.205       6900902.257
10 0 59315  26460.000000  0       -175885.219      -1071895.673       6877257.093
10 0 59315  26520.000000  0       -594661.969      -1249091.907       6824458.083
10 0 59315  26580.000000  0      -1012448.034      -1417371.979       6742735.652
10 0 59315  26640.000000  0      -1427405.504      -1576045.769       6632441.806
10 0 59315  26700.000000  0      -1837703.089      -1724479.724       6494048.592
10 0 59315  26760.000000  0      -2241524.121      -1862099.308       6328146.128
10 0 59315  26820.000000  0      -2637074.534      -1988391.189       6135440.277
10 0 59315  26880.000000  0      -3022590.926      -2102905.179       5916749.869
10 0 59315  26940.000000  0      -3396348.611      -2205255.839       5673003.307
10 0 59315  27000.000000  0      -3756669.393      -2295123.731       5405234.614
10 0 59315  27060.000000  0      -4101929.154      -2372256.330       5114579.172
10 0 59315  27120.000000  0      -4430565.318      -2436468.626       4802268.979
10 0 59315  27180.000000  0      -4741084.026      -2487643.329       4469627.460
10 0 59315  27240.000000  0      -5032067.022      -2525730.733       4118063.924
10 0 59315  27300.000000  0      -5302178.246      -2550748.249       3749067.662
10 0 59315  27360.000000  0      -5550170.105      -2562779.605       3364201.705
10 0 59315  27420.000000  0      -5774889.394      -2561973.719       2965096.243
10 0 59315  27480.000000  0      -5975282.814      -2548543.269       2553441.725
10 0 59315  27540.000000  0      -6150402.096      -2522762.974       2130981.675
10 0 59315  27600.000000  0      -6299408.692      -2484967.538       1699505.164
10 0 59315  27660.000000  0      -6421577.842      -2435549.217       1260839.005
10 0 59315  27720.000000  0      -6516302.036      -2374955.101        816839.915
10 0 59315  27780.000000  0      -6583094.068      -2303684.191        369386.578
10 0 59315  27840.000000  0      -6621589.559      -2222284.192        -79628.485
10 0 59315  27900.000000  0      -6631548.835      -2131348.045       -528307.139
10 0 59315  27960.000000  0      -6612858.148      -2031510.256       -974753.834
10 0 59315  28020.000000  0      -6565530.322      -1923443.057      -1417083.752
10 0 59315  28080.000000  0      -6489704.814      -1807852.403      -1853430.860
10 0 59315  28140.000000  0      -6385647.169      -1685473.818      -2281955.873
10 0 59315  28200.000000  0      -6253747.892      -1557068.134      -2700854.025
10 0 59315  28260.000000  0      -6094520.759      -1423417.151      -3108362.693
10 0 59315  28320.000000  0      -5908600.557      -1285319.224      -3502768.776
10 0 59315  28380.000000  0      -5696740.281      -1143584.812      -3882415.823
10 0 59315  28440.000000  0      -5459807.822       -999032.026      -4245710.874
10 0 59315  28500.000000  0      -5198782.138       -852482.155      -4591130.998
10 0 59315  28560.000000  0      -4914748.941       -704755.254      -4917229.481
10 0 59315  28620.000000  0      -4608895.923       -556665.809      -5222641.652
10 0 59315  28680.000000  0      -4282507.554       -409018.488      -5506090.335
10 0 59315  28740.000000  0      -3936959.495       -262603.978      -5766390.877
99
